OBJECT_NAME,OBJECT_ID,EPOCH,MEAN_MOTION,ECCENTRICITY,INCLINATION,RA_OF_ASC_NODE,ARG_OF_PERICENTER,MEAN_ANOMALY,EPHEMERIS_TYPE,CLASSIFICATION_TYPE,NORAD_CAT_ID,ELEMENT_SET_NO,REV_AT_EPOCH,BSTAR,MEAN_MOTION_DOT,MEAN_MOTION_DDOT
SAPPHIRE,2013-009C,2026-06-13T14:33:12.719808,14.35239653,.00099988,98.4259,344.1473,258.5735,101.4328,0,U,39088,999,69606,.52339586E-4,.107E-5,0
PRAETORIAN SDA_602,2025-203A,2026-06-13T15:02:58.470432,13.84342394,.00055809,81.3032,14.0669,193.9824,166.1180,0,U,65565,999,3820,.37505538E-4,.54E-6,0
PRAETORIAN SDA_603,2025-203B,2026-06-13T13:55:40.445472,13.83905161,.00091043,81.3038,14.0242,197.5887,162.4956,0,U,65566,999,3820,.16640092E-3,.196E-5,0
PRAETORIAN SDA_604,2025-203C,2026-06-13T14:20:50.861760,13.83047169,.00050753,81.3054,14.4149,201.8946,158.1994,0,U,65567,999,3818,.46704548E-4,.63E-6,0
PRAETORIAN SDA_605,2025-203D,2026-06-13T15:16:30.936288,13.83433892,.00078977,81.3020,14.0456,192.8164,167.2793,0,U,65568,999,3820,.32183115E-4,.47E-6,0
PRAETORIAN SDA_606,2025-203E,2026-06-13T14:51:17.075232,13.83407032,.00055211,81.3055,14.2821,190.8277,169.2762,0,U,65569,999,3819,.51883203E-4,.69E-6,0
PRAETORIAN SDA_607,2025-203F,2026-06-13T15:06:06.339456,13.84284226,.00084562,81.3039,13.9414,197.4726,162.6142,0,U,65570,999,3821,.18680838E-3,.22E-5,0
PRAETORIAN SDA_608,2025-203G,2026-06-13T14:31:49.834560,13.83816456,.0005591,81.3008,14.1237,201.0180,159.0748,0,U,65571,999,3819,.39099768E-4,.55E-6,0
PRAETORIAN SDA_610,2025-203J,2026-06-13T14:02:48.511680,13.83851589,.00062489,81.3009,14.1005,198.6418,161.4511,0,U,65573,999,3819,.32136696E-4,.47E-6,0
PRAETORIAN SDA_611,2025-203K,2026-06-13T14:01:53.982048,13.83309539,.00050695,81.3013,14.2639,205.5708,154.5198,0,U,65574,999,3818,.23943207E-3,.275E-5,0
PRAETORIAN SDA_612,2025-203L,2026-06-13T13:53:25.095552,13.85038705,.00088689,81.3030,13.8643,197.2194,162.8664,0,U,65575,999,3821,.93855265E-4,.118E-5,0
PRAETORIAN SDA_613,2025-203M,2026-06-13T14:09:34.474176,13.82764736,.00053514,81.3000,14.2531,194.0952,166.0056,0,U,65576,999,3818,.35681827E-4,.51E-6,0
PRAETORIAN SDA_614,2025-203N,2026-06-13T15:20:53.811744,13.84777826,.00068042,81.3015,13.8849,193.6547,166.4427,0,U,65577,999,3822,.19922484E-4,.34E-6,0
PRAETORIAN SDA_616,2025-203Q,2026-06-13T14:00:36.734400,13.83267572,.00050125,81.3065,14.4071,202.9762,157.1171,0,U,65579,999,3818,.18876907E-3,.219E-5,0
PRAETORIAN SDA_619,2025-203T,2026-06-13T14:46:51.486816,13.83805807,.00078901,81.3047,14.0907,195.2122,164.8799,0,U,65582,999,3883,.22058328E-3,.256E-5,0
PRAETORIAN SDA_620,2025-203U,2026-06-13T15:26:28.050144,13.83617902,.00073111,81.3032,14.0857,190.9741,169.1257,0,U,65583,999,3820,.10889606E-3,.132E-5,0
PRAETORIAN SDA_621,2025-203V,2026-06-13T14:49:23.742624,13.83800853,.00071646,81.3022,14.0290,188.4087,171.6951,0,U,65584,999,3820,.35675241E-4,.51E-6,0
PRAETORIAN SDA_601,2025-203W,2026-06-13T14:04:45.122304,13.83168287,.00049804,81.3045,14.3501,206.5927,153.4974,0,U,65585,999,3818,.55258413E-3,.617E-5,0
