{"fetched_at":"2026-06-14T03:48:42Z","count":16735,"tles":[{"name":"PRAETORIAN SDA_610","line1":"1 65573U 25203J   26164.58528370  .00000047  00000+0  32137-4 0  9995","line2":"2 65573  81.3009  14.1005 0006248 198.6418 161.4511 13.83851589 38198","category":"Other"},{"name":"PRAETORIAN SDA_612","line1":"1 65575U 25203L   26164.57876268  .00000118  00000+0  93855-4 0  9991","line2":"2 65575  81.3030  13.8643 0008868 197.2194 162.8664 13.85038705 38210","category":"Other"},{"name":"PRAETORIAN SDA_613","line1":"1 65576U 25203M   26164.58998234  .00000051  00000+0  35682-4 0  9991","line2":"2 65576  81.3000  14.2531 0005351 194.0952 166.0056 13.82764736 38184","category":"Other"},{"name":"PRAETORIAN SDA_614","line1":"1 65577U 25203N   26164.63951171  .00000034  00000+0  19922-4 0  9997","line2":"2 65577  81.3015  13.8849 0006804 193.6547 166.4427 13.84777826 38224","category":"Other"},{"name":"PRAETORIAN SDA_603","line1":"1 65566U 25203B   26164.58032923  .00000196  00000+0  16640-3 0  9996","line2":"2 65566  81.3038  14.0242 0009104 197.5887 162.4956 13.83905161 38208","category":"Other"},{"name":"PRAETORIAN SDA_616","line1":"1 65579U 25203Q   26164.58375850  .00000219  00000+0  18877-3 0  9999","line2":"2 65579  81.3065  14.4071 0005012 202.9762 157.1171 13.83267572 38187","category":"Other"},{"name":"PRAETORIAN SDA_620","line1":"1 65583U 25203U   26164.64338021  .00000132  00000+0  10890-3 0  9991","line2":"2 65583  81.3032  14.0857 0007311 190.9741 169.1257 13.83617902 38208","category":"Other"},{"name":"PRAETORIAN SDA_602","line1":"1 65565U 25203A   26164.62706563  .00000054  00000+0  37506-4 0  9996","line2":"2 65565  81.3032  14.0669 0005580 193.9824 166.1180 13.84342394 38203","category":"Other"},{"name":"PRAETORIAN SDA_606","line1":"1 65569U 25203E   26164.61894763  .00000069  00000+0  51883-4 0  9999","line2":"2 65569  81.3055  14.2821 0005521 190.8277 169.2762 13.83407032 38195","category":"Other"},{"name":"PRAETORIAN SDA_619","line1":"1 65582U 25203T   26164.61587369  .00000256  00000+0  22058-3 0  9994","line2":"2 65582  81.3047  14.0907 0007890 195.2122 164.8799 13.83805807 38837","category":"Other"},{"name":"PRAETORIAN SDA_604","line1":"1 65567U 25203C   26164.59781090  .00000063  00000+0  46705-4 0  9993","line2":"2 65567  81.3054  14.4149 0005075 201.8946 158.1994 13.83047169 38181","category":"Other"},{"name":"PRAETORIAN SDA_621","line1":"1 65584U 25203V   26164.61763591  .00000051  00000+0  35675-4 0  9992","line2":"2 65584  81.3022  14.0290 0007164 188.4087 171.6951 13.83800853 38208","category":"Other"},{"name":"PRAETORIAN SDA_605","line1":"1 65568U 25203D   26164.63646917  .00000047  00000+0  32183-4 0  9994","line2":"2 65568  81.3020  14.0456 0007897 192.8164 167.2793 13.83433892 38200","category":"Other"},{"name":"PRAETORIAN SDA_601","line1":"1 65585U 25203W   26164.58663336  .00000617  00000+0  55258-3 0  9991","line2":"2 65585  81.3045  14.3501 0004980 206.5927 153.4974 13.83168287 38188","category":"Other"},{"name":"PRAETORIAN SDA_608","line1":"1 65571U 25203G   26164.60543790  .00000055  00000+0  39100-4 0  9995","line2":"2 65571  81.3008  14.1237 0005591 201.0180 159.0748 13.83816456 38196","category":"Other"},{"name":"PRAETORIAN SDA_607","line1":"1 65570U 25203F   26164.62924004  .00000220  00000+0  18681-3 0  9991","line2":"2 65570  81.3039  13.9414 0008456 197.4726 162.6142 13.84284226 38216","category":"Other"},{"name":"PRAETORIAN SDA_611","line1":"1 65574U 25203K   26164.58465257  .00000275  00000+0  23943-3 0  9997","line2":"2 65574  81.3013  14.2639 0005069 205.5708 154.5198 13.83309539 38184","category":"Other"},{"name":"SAPPHIRE","line1":"1 39088U 13009C   26164.60639722  .00000107  00000+0  52340-4 0  9990","line2":"2 39088  98.4259 344.1473 0009998 258.5735 101.4328 14.35239653696060","category":"Other"}]}